{"type": "FeatureCollection", "features": [ {"type": "Feature", "properties": {"norad_id": 37216, "name": "COSMO-SKYMED 4", "group": "resource", "lat": 11.335143984971479, "lon": 158.26560898782367, "alt_km": 623.6446494017655, "timestamp": "2025-12-04T09:47:37.179486+00:00", "meta": {"OBJECT_NAME": "COSMO-SKYMED 4", "OBJECT_ID": "2010-060A", "EPOCH": "2025-12-03T22:24:01.371744", "MEAN_MOTION": 14.82151203, "ECCENTRICITY": 0.00013953, "INCLINATION": 97.8808, "RA_OF_ASC_NODE": 159.3893, "ARG_OF_PERICENTER": 83.5232, "MEAN_ANOMALY": 276.614, "EPHEMERIS_TYPE": 0, "CLASSIFICATION_TYPE": "U", "NORAD_CAT_ID": 37216, "ELEMENT_SET_NO": 999, "REV_AT_EPOCH": 81564, "BSTAR": 0.00013009198, "MEAN_MOTION_DOT": 9.84e-06, "MEAN_MOTION_DDOT": 0}, "tle": {"line1": "1 37216U 10060A   25337.93334921  .00000984  00000+0  13009-3 0  9996", "line2": "2 37216  97.8808 159.3893 0001395  83.5232 276.6140 14.82151203815647"}}, "geometry": {"type": "Point", "coordinates": [158.26560898782367, 11.335143984971479]}}, {"type": "Feature", "properties": {"norad_id": 37387, "name": "RESOURCESAT-2", "group": "resource", "lat": -10.069002823555778, "lon": 43.571081563221654, "alt_km": 822.7619225881581, "timestamp": "2025-12-04T09:47:37.179496+00:00", "meta": {"OBJECT_NAME": "RESOURCESAT-2", "OBJECT_ID": "2011-015A", "EPOCH": "2025-12-04T03:05:04.763040", "MEAN_MOTION": 14.21591898, "ECCENTRICITY": 0.000676, "INCLINATION": 98.7889, "RA_OF_ASC_NODE": 41.7186, "ARG_OF_PERICENTER": 64.7839, "MEAN_ANOMALY": 295.4038, "EPHEMERIS_TYPE": 0, "CLASSIFICATION_TYPE": "U", "NORAD_CAT_ID": 37387, "ELEMENT_SET_NO": 999, "REV_AT_EPOCH": 75846, "BSTAR": 0.00016932, "MEAN_MOTION_DOT": 3.27e-06, "MEAN_MOTION_DDOT": 0}, "tle": {"line1": "1 37387U 11015A   25338.12852735  .00000327  00000+0  16932-3 0  9995", "line2": "2 37387  98.7889  41.7186 0006760  64.7839 295.4038 14.21591898758461"}}, "geometry": {"type": "Point", "coordinates": [43.571081563221654, -10.069002823555778]}}, {"type": "Feature", "properties": {"norad_id": 37781, "name": "HAIYANG-2A", "group": "resource", "lat": -57.23952943851072, "lon": 144.65637916166628, "alt_km": 976.0128061989299, "timestamp": "2025-12-04T09:47:37.179507+00:00", "meta": {"OBJECT_NAME": "HAIYANG-2A", "OBJECT_ID": "2011-043A", "EPOCH": "2025-12-03T23:56:00.582144", "MEAN_MOTION": 13.78834259, "ECCENTRICITY": 0.00016456, "INCLINATION": 99.3377, "RA_OF_ASC_NODE": 339.0665, "ARG_OF_PERICENTER": 95.783, "MEAN_ANOMALY": 264.3509, "EPHEMERIS_TYPE": 0, "CLASSIFICATION_TYPE": "U", "NORAD_CAT_ID": 37781, "ELEMENT_SET_NO": 999, "REV_AT_EPOCH": 71978, "BSTAR": 6.3593184e-05, "MEAN_MOTION_DOT": 2.1e-07, "MEAN_MOTION_DDOT": 0}, "tle": {"line1": "1 37781U 11043A   25337.99722896  .00000021  00000+0  63593-4 0  9999", "line2": "2 37781  99.3377 339.0665 0001645  95.7830 264.3509 13.78834259719787"}}, "geometry": {"type": "Point", "coordinates": [144.65637916166628, -57.23952943851072]}}, {"type": "Feature", "properties": {"norad_id": 37791, "name": "RASAT", "group": "resource", "lat": -28.062858282496446, "lon": -116.54611986267223, "alt_km": 680.9329994541677, "timestamp": "2025-12-04T09:47:37.179517+00:00", "meta": {"OBJECT_NAME": "RASAT", "OBJECT_ID": "2011-044D", "EPOCH": "2025-12-03T23:33:08.849952", "MEAN_MOTION": 14.6789038, "ECCENTRICITY": 0.00219618, "INCLINATION": 98.0656, "RA_OF_ASC_NODE": 67.3691, "ARG_OF_PERICENTER": 91.3734, "MEAN_ANOMALY": 23.0694, "EPHEMERIS_TYPE": 0, "CLASSIFICATION_TYPE": "U", "NORAD_CAT_ID": 37791, "ELEMENT_SET_NO": 999, "REV_AT_EPOCH": 76454, "BSTAR": 0.00022632648, "MEAN_MOTION_DOT": 1.249e-05, "MEAN_MOTION_DDOT": 0}, "tle": {"line1": "1 37791U 11044D   25337.98135243  .00001249  00000+0  22633-3 0  9996", "line2": "2 37791  98.0656  67.3691 0021961  91.3734  23.0694 14.67890380764547"}}, "geometry": {"type": "Point", "coordinates": [-116.54611986267223, -28.062858282496446]}}, {"type": "Feature", "properties": {"norad_id": 37841, "name": "SRMSAT", "group": "resource", "lat": 16.05585038341896, "lon": -74.04095012979187, "alt_km": 850.3478520302297, "timestamp": "2025-12-04T09:47:37.179528+00:00", "meta": {"OBJECT_NAME": "SRMSAT", "OBJECT_ID": "2011-058D", "EPOCH": "2025-12-03T21:51:18.053568", "MEAN_MOTION": 14.11506789, "ECCENTRICITY": 0.0011726, "INCLINATION": 19.9698, "RA_OF_ASC_NODE": 161.3894, "ARG_OF_PERICENTER": 215.5538, "MEAN_ANOMALY": 257.2435, "EPHEMERIS_TYPE": 0, "CLASSIFICATION_TYPE": "U", "NORAD_CAT_ID": 37841, "ELEMENT_SET_NO": 999, "REV_AT_EPOCH": 73019, "BSTAR": 0.00015324, "MEAN_MOTION_DOT": 5.47e-06, "MEAN_MOTION_DDOT": 0}, "tle": {"line1": "1 37841U 11058D   25337.91062562  .00000547  00000+0  15324-3 0  9992", "line2": "2 37841  19.9698 161.3894 0011726 215.5538 257.2435 14.11506789730195"}}, "geometry": {"type": "Point", "coordinates": [-74.04095012979187, 16.05585038341896]}}, {"type": "Feature", "properties": {"norad_id": 38012, "name": "PLEIADES 1A", "group": "resource", "lat": -74.70372437065501, "lon": 83.05004071127671, "alt_km": 706.0871902825611, "timestamp": "2025-12-04T09:47:37.179538+00:00", "meta": {"OBJECT_NAME": "PLEIADES 1A", "OBJECT_ID": "2011-076F", "EPOCH": "2025-12-04T00:49:47.280000", "MEAN_MOTION": 14.58548492, "ECCENTRICITY": 0.0001402, "INCLINATION": 98.1833, "RA_OF_ASC_NODE": 50.9371, "ARG_OF_PERICENTER": 80.9745, "MEAN_ANOMALY": 42.0538, "EPHEMERIS_TYPE": 0, "CLASSIFICATION_TYPE": "U", "NORAD_CAT_ID": 38012, "ELEMENT_SET_NO": 999, "REV_AT_EPOCH": 74354, "BSTAR": 0.00019361087, "MEAN_MOTION_DOT": 8.54e-06, "MEAN_MOTION_DDOT": 0}, "tle": {"line1": "1 38012U 11076F   25338.03457500  .00000854  00000+0  19361-3 0  9993", "line2": "2 38012  98.1833  50.9371 0001402  80.9745  42.0538 14.58548492743548"}}, "geometry": {"type": "Point", "coordinates": [83.05004071127671, -74.70372437065501]}}, {"type": "Feature", "properties": {"norad_id": 38038, "name": "ZIYUAN 1-02C (ZY 1-02C)", "group": "resource", "lat": 80.69861845723142, "lon": -20.377507239068596, "alt_km": 756.4564623366241, "timestamp": "2025-12-04T09:47:37.179548+00:00", "meta": {"OBJECT_NAME": "ZIYUAN 1-02C (ZY 1-02C)", "OBJECT_ID": "2011-079A", "EPOCH": "2025-12-03T23:56:46.153824", "MEAN_MOTION": 14.37996855, "ECCENTRICITY": 0.00068076, "INCLINATION": 98.4345, "RA_OF_ASC_NODE": 44.1722, "ARG_OF_PERICENTER": 162.668, "MEAN_ANOMALY": 320.6146, "EPHEMERIS_TYPE": 0, "CLASSIFICATION_TYPE": "U", "NORAD_CAT_ID": 38038, "ELEMENT_SET_NO": 999, "REV_AT_EPOCH": 73115, "BSTAR": 0.00033327669, "MEAN_MOTION_DOT": 9.65e-06, "MEAN_MOTION_DDOT": 0}, "tle": {"line1": "1 38038U 11079A   25337.99775641  .00000965  00000+0  33328-3 0  9999", "line2": "2 38038  98.4345  44.1722 0006807 162.6680 320.6146 14.37996855731153"}}, "geometry": {"type": "Point", "coordinates": [-20.377507239068596, 80.69861845723142]}}, {"type": "Feature", "properties": {"norad_id": 38046, "name": "ZIYUAN 3-1 (ZY 3-1)", "group": "resource", "lat": -43.94149917873402, "lon": 51.61611662046417, "alt_km": 373.84026265738885, "timestamp": "2025-12-04T09:47:37.179559+00:00", "meta": {"OBJECT_NAME": "ZIYUAN 3-1 (ZY 3-1)", "OBJECT_ID": "2012-001A", "EPOCH": "2025-12-03T23:15:14.304384", "MEAN_MOTION": 15.66889682, "ECCENTRICITY": 0.00021636, "INCLINATION": 97.1776, "RA_OF_ASC_NODE": 44.1917, "ARG_OF_PERICENTER": 29.8822, "MEAN_ANOMALY": 330.2562, "EPHEMERIS_TYPE": 0, "CLASSIFICATION_TYPE": "U", "NORAD_CAT_ID": 38046, "ELEMENT_SET_NO": 999, "REV_AT_EPOCH": 77359, "BSTAR": 0.0010986213, "MEAN_MOTION_DOT": 0.00117472, "MEAN_MOTION_DDOT": 0}, "tle": {"line1": "1 38046U 12001A   25337.96891556  .00117472  00000+0  10986-2 0  9991", "line2": "2 38046  97.1776  44.1917 0002163  29.8822 330.2562 15.66889682773590"}}, "geometry": {"type": "Point", "coordinates": [51.61611662046417, -43.94149917873402]}}, {"type": "Feature", "properties": {"norad_id": 38338, "name": "ARIRANG-3 (KOMPSAT-3)", "group": "resource", "lat": 80.78299171253538, "lon": -131.62227455700727, "alt_km": 679.5996789408155, "timestamp": "2025-12-04T09:47:37.179569+00:00", "meta": {"OBJECT_NAME": "ARIRANG-3 (KOMPSAT-3)", "OBJECT_ID": "2012-025B", "EPOCH": "2025-12-04T04:28:23.126592", "MEAN_MOTION": 14.61694888, "ECCENTRICITY": 0.000597, "INCLINATION": 98.3309, "RA_OF_ASC_NODE": 292.712, "ARG_OF_PERICENTER": 5.8805, "MEAN_ANOMALY": 354.2465, "EPHEMERIS_TYPE": 0, "CLASSIFICATION_TYPE": "U", "NORAD_CAT_ID": 38338, "ELEMENT_SET_NO": 999, "REV_AT_EPOCH": 72285, "BSTAR": 0.00024529, "MEAN_MOTION_DOT": 1.173e-05, "MEAN_MOTION_DDOT": 0}, "tle": {"line1": "1 38338U 12025B   25338.18637878  .00001173  00000+0  24529-3 0  9990", "line2": "2 38338  98.3309 292.7120 0005970   5.8805 354.2465 14.61694888722857"}}, "geometry": {"type": "Point", "coordinates": [-131.62227455700727, 80.78299171253538]}}, {"type": "Feature", "properties": {"norad_id": 38709, "name": "EXACTVIEW-1 (ADS-1B)", "group": "resource", "lat": 71.93749823630468, "lon": -64.4318162631005, "alt_km": 801.5259911078438, "timestamp": "2025-12-04T09:47:37.179579+00:00", "meta": {"OBJECT_NAME": "EXACTVIEW-1 (ADS-1B)", "OBJECT_ID": "2012-039C", "EPOCH": "2025-12-03T21:30:11.581632", "MEAN_MOTION": 14.2490219, "ECCENTRICITY": 0.0011127, "INCLINATION": 98.9636, "RA_OF_ASC_NODE": 86.1007, "ARG_OF_PERICENTER": 19.4867, "MEAN_ANOMALY": 340.6735, "EPHEMERIS_TYPE": 0, "CLASSIFICATION_TYPE": "U", "NORAD_CAT_ID": 38709, "ELEMENT_SET_NO": 999, "REV_AT_EPOCH": 69489, "BSTAR": 0.00014941384, "MEAN_MOTION_DOT": 3.03e-06, "MEAN_MOTION_DDOT": 0}, "tle": {"line1": "1 38709U 12039C   25337.89596738  .00000303  00000+0  14941-3 0  9994", "line2": "2 38709  98.9636  86.1007 0011127  19.4867 340.6735 14.24902190694895"}}, "geometry": {"type": "Point", "coordinates": [-64.4318162631005, 71.93749823630468]}}]}